{"type": "FeatureCollection", "features": [ {"type": "Feature", "properties": {"norad_id": 43286, "name": "IRNSS-1I", "group": "gnss", "lat": 27.63458682752369, "lon": -172.7313462093852, "alt_km": 35755.45518711869, "timestamp": "2025-12-01T03:58:50.204012+00:00", "meta": {"OBJECT_NAME": "IRNSS-1I", "OBJECT_ID": "2018-035A", "EPOCH": "2025-11-29T20:58:58.632672", "MEAN_MOTION": 1.00276938, "ECCENTRICITY": 0.00215186, "INCLINATION": 29.1184, "RA_OF_ASC_NODE": 77.3003, "ARG_OF_PERICENTER": 181.394, "MEAN_ANOMALY": 180.1762, "EPHEMERIS_TYPE": 0, "CLASSIFICATION_TYPE": "U", "NORAD_CAT_ID": 43286, "ELEMENT_SET_NO": 999, "REV_AT_EPOCH": 2808, "BSTAR": 0, "MEAN_MOTION_DOT": 1.02e-06, "MEAN_MOTION_DDOT": 0, "GROUP": "gnss"}, "tle": {"line1": "1 43286U 18035A   25333.87428973  .00000102  00000+0  00000+0 0  9995", "line2": "2 43286  29.1184  77.3003 0021518 181.3940 180.1762  1.00276938 28082"}}, "geometry": {"type": "Point", "coordinates": [-172.7313462093852, 27.63458682752369]}}, {"type": "Feature", "properties": {"norad_id": 44624, "name": "EUTELSAT 5 WEST B (EGNOS/PRN 121)", "group": "gnss", "lat": 0.03491712035374723, "lon": 124.9406339635242, "alt_km": 35794.48304995144, "timestamp": "2025-12-01T03:58:50.204100+00:00", "meta": {"OBJECT_NAME": "EUTELSAT 5 WEST B (EGNOS/PRN 121)", "OBJECT_ID": "2019-067A", "EPOCH": "2025-11-30T18:57:11.146176", "MEAN_MOTION": 1.00271198, "ECCENTRICITY": 0.0003442, "INCLINATION": 0.0671, "RA_OF_ASC_NODE": 334.769, "ARG_OF_PERICENTER": 274.6765, "MEAN_ANOMALY": 99.7753, "EPHEMERIS_TYPE": 0, "CLASSIFICATION_TYPE": "U", "NORAD_CAT_ID": 44624, "ELEMENT_SET_NO": 999, "REV_AT_EPOCH": 2244, "BSTAR": 0, "MEAN_MOTION_DOT": -2e-07, "MEAN_MOTION_DDOT": 0, "GROUP": "gnss"}, "tle": {"line1": "1 44624U 19067A   25334.78971234 -.00000020  00000+0  00000+0 0  9992", "line2": "2 44624   0.0671 334.7690 0003442 274.6765  99.7753  1.00271198 22449"}}, "geometry": {"type": "Point", "coordinates": [124.9406339635242, 0.03491712035374723]}}, {"type": "Feature", "properties": {"norad_id": 46114, "name": "GALAXY 30 (WAAS/PRN 135)", "group": "gnss", "lat": 0.035895510778434586, "lon": 4.992344820097726, "alt_km": 35790.3663692392, "timestamp": "2025-12-01T03:58:50.204212+00:00", "meta": {"OBJECT_NAME": "GALAXY 30 (WAAS/PRN 135)", "OBJECT_ID": "2020-056C", "EPOCH": "2025-11-30T14:57:38.108736", "MEAN_MOTION": 1.00272306, "ECCENTRICITY": 0.0002286, "INCLINATION": 0.0185, "RA_OF_ASC_NODE": 288.0747, "ARG_OF_PERICENTER": 319.4263, "MEAN_ANOMALY": 281.6619, "EPHEMERIS_TYPE": 0, "CLASSIFICATION_TYPE": "U", "NORAD_CAT_ID": 46114, "ELEMENT_SET_NO": 999, "REV_AT_EPOCH": 1930, "BSTAR": 0, "MEAN_MOTION_DOT": 5.8e-07, "MEAN_MOTION_DDOT": 0, "GROUP": "gnss"}, "tle": {"line1": "1 46114U 20056C   25334.62335774  .00000058  00000+0  00000+0 0  9994", "line2": "2 46114   0.0185 288.0747 0002286 319.4263 281.6619  1.00272306 19301"}}, "geometry": {"type": "Point", "coordinates": [4.992344820097726, 0.035895510778434586]}}, {"type": "Feature", "properties": {"norad_id": 49336, "name": "QZS-1R (QZSS/PRN 196)", "group": "gnss", "lat": 3.4160685782208384, "lon": -102.04437135108412, "alt_km": 35931.3032782171, "timestamp": "2025-12-01T03:58:50.204435+00:00", "meta": {"OBJECT_NAME": "QZS-1R (QZSS/PRN 196)", "OBJECT_ID": "2021-096A", "EPOCH": "2025-11-30T15:23:38.784768", "MEAN_MOTION": 1.00261115, "ECCENTRICITY": 0.0753238, "INCLINATION": 37.0511, "RA_OF_ASC_NODE": 82.5412, "ARG_OF_PERICENTER": 271.0606, "MEAN_ANOMALY": 82.4765, "EPHEMERIS_TYPE": 0, "CLASSIFICATION_TYPE": "U", "NORAD_CAT_ID": 49336, "ELEMENT_SET_NO": 999, "REV_AT_EPOCH": 1502, "BSTAR": 0, "MEAN_MOTION_DOT": -2.12e-06, "MEAN_MOTION_DDOT": 0, "GROUP": "gnss"}, "tle": {"line1": "1 49336U 21096A   25334.64142112 -.00000212  00000+0  00000+0 0  9995", "line2": "2 49336  37.0511  82.5412 0753238 271.0606  82.4765  1.00261115 15023"}}, "geometry": {"type": "Point", "coordinates": [-102.04437135108412, 3.4160685782208384]}}, {"type": "Feature", "properties": {"norad_id": 56759, "name": "NVS-01 (IRNSS-1J)", "group": "gnss", "lat": 0.3320194801373364, "lon": -100.4700554642712, "alt_km": 35751.130224239794, "timestamp": "2025-12-01T03:58:50.204921+00:00", "meta": {"OBJECT_NAME": "NVS-01 (IRNSS-1J)", "OBJECT_ID": "2023-076A", "EPOCH": "2025-11-30T19:35:44.952000", "MEAN_MOTION": 1.00268789, "ECCENTRICITY": 0.0008465, "INCLINATION": 2.6504, "RA_OF_ASC_NODE": 252.0362, "ARG_OF_PERICENTER": 5.1432, "MEAN_ANOMALY": 236.2786, "EPHEMERIS_TYPE": 0, "CLASSIFICATION_TYPE": "U", "NORAD_CAT_ID": 56759, "ELEMENT_SET_NO": 999, "REV_AT_EPOCH": 912, "BSTAR": 0, "MEAN_MOTION_DOT": -3.13e-06, "MEAN_MOTION_DDOT": 0, "GROUP": "gnss"}, "tle": {"line1": "1 56759U 23076A   25334.81649250 -.00000313  00000+0  00000+0 0  9998", "line2": "2 56759   2.6504 252.0362 0008465   5.1432 236.2786  1.00268789  9126"}}, "geometry": {"type": "Point", "coordinates": [-100.4700554642712, 0.3320194801373364]}}, {"type": "Feature", "properties": {"norad_id": 62850, "name": "NVS-02 (IRNSS-1K)", "group": "gnss", "lat": 2.6894867553946207, "lon": 144.79465561809735, "alt_km": 27521.503427571526, "timestamp": "2025-12-01T03:58:50.205617+00:00", "meta": {"OBJECT_NAME": "NVS-02 (IRNSS-1K)", "OBJECT_ID": "2025-020A", "EPOCH": "2025-11-30T14:24:05.394816", "MEAN_MOTION": 2.17582193, "ECCENTRICITY": 0.7348342, "INCLINATION": 21.0141, "RA_OF_ASC_NODE": 332.0461, "ARG_OF_PERICENTER": 18.3616, "MEAN_ANOMALY": 358.1894, "EPHEMERIS_TYPE": 0, "CLASSIFICATION_TYPE": "U", "NORAD_CAT_ID": 62850, "ELEMENT_SET_NO": 999, "REV_AT_EPOCH": 665, "BSTAR": 0.00017358, "MEAN_MOTION_DOT": 3.63e-06, "MEAN_MOTION_DDOT": 0, "GROUP": "gnss"}, "tle": {"line1": "1 62850U 25020A   25334.60006244  .00000363  00000+0  17358-3 0  9997", "line2": "2 62850  21.0141 332.0461 7348342  18.3616 358.1894  2.17582193  6650"}}, "geometry": {"type": "Point", "coordinates": [144.79465561809735, 2.6894867553946207]}}]}